start=new Date('2023-05-03T00:00:00.000Z').valueOf();
sats=[{"TIME_SYSTEM":"UTC","CENTER_NAME":"EARTH","SEMIMAJOR_AXIS":"6917.846","ELEMENT_SET_NO":"999","REV_AT_EPOCH":"4387","INCLINATION":"53.2159","FILE":"3899277","TLE_LINE1":"1 53271U 22086AF  23122.54813633  .00006701  00000-0  43860-3 0  9997","APOAPSIS":"540.480","EPOCH":"2023-05-02T13:09:18.978912","PERIAPSIS":"538.942","ECCENTRICITY":"0.00011120","OBJECT_TYPE":"PAYLOAD","ARG_OF_PERICENTER":"82.7426","GP_ID":"231125522","TLE_LINE2":"2 53271  53.2159 182.4753 0001112  82.7426 277.3693 15.08851209 43877","EPHEMERIS_TYPE":"0","SITE":"AFETR","CLASSIFICATION_TYPE":"U","NORAD_CAT_ID":"53271","BSTAR":"0.00043860000000","MEAN_ELEMENT_THEORY":"SGP4","REF_FRAME":"TEME","DECAY_DATE":null,"PERIOD":"95.437","LAUNCH_DATE":"2022-07-24","RA_OF_ASC_NODE":"182.4753","MEAN_ANOMALY":"277.3693","COUNTRY_CODE":"US","OBJECT_ID":"2022-086AF","MEAN_MOTION":"15.08851209","MEAN_MOTION_DDOT":"0.0000000000000","OBJECT_NAME":"STARLINK-4069","RCS_SIZE":"LARGE","MEAN_MOTION_DOT":"0.00006701"},{"SEMIMAJOR_AXIS":"6917.854","CENTER_NAME":"EARTH","TIME_SYSTEM":"UTC","FILE":"3899216","INCLINATION":"53.2153","REV_AT_EPOCH":"4368","ELEMENT_SET_NO":"999","TLE_LINE1":"1 53272U 22086AG  23122.49293498  .00002787  00000-0  19305-3 0  9990","EPOCH":"2023-05-02T11:49:49.582272","APOAPSIS":"540.484","PERIAPSIS":"538.954","OBJECT_TYPE":"PAYLOAD","ECCENTRICITY":"0.00011060","GP_ID":"231100042","ARG_OF_PERICENTER":"82.2268","TLE_LINE2":"2 53272  53.2153 182.7230 0001106  82.2268 277.8850 15.08848590 43685","SITE":"AFETR","EPHEMERIS_TYPE":"0","REF_FRAME":"TEME","BSTAR":"0.00019305000000","MEAN_ELEMENT_THEORY":"SGP4","NORAD_CAT_ID":"53272","CLASSIFICATION_TYPE":"U","COUNTRY_CODE":"US","MEAN_ANOMALY":"277.8850","DECAY_DATE":null,"RA_OF_ASC_NODE":"182.7230","LAUNCH_DATE":"2022-07-24","PERIOD":"95.437","MEAN_MOTION":"15.08848590","OBJECT_ID":"2022-086AG","OBJECT_NAME":"STARLINK-4122","MEAN_MOTION_DDOT":"0.0000000000000","MEAN_MOTION_DOT":"0.00002787","RCS_SIZE":"LARGE"},{"EPOCH":"2023-05-02T20:55:39.016704","APOAPSIS":"540.504","PERIAPSIS":"538.984","OBJECT_TYPE":"PAYLOAD","ECCENTRICITY":"0.00010990","SEMIMAJOR_AXIS":"6917.879","CENTER_NAME":"EARTH","TIME_SYSTEM":"UTC","FILE":"3899277","REV_AT_EPOCH":"4391","INCLINATION":"53.2166","ELEMENT_SET_NO":"999","TLE_LINE1":"1 53273U 22086AH  23122.87197936  .00001656  00000-0  12208-3 0  9992","MEAN_MOTION":"15.08840520","OBJECT_ID":"2022-086AH","OBJECT_NAME":"STARLINK-4051","MEAN_MOTION_DDOT":"0.0000000000000","RCS_SIZE":"LARGE","MEAN_MOTION_DOT":"0.00001656","ARG_OF_PERICENTER":"89.1108","GP_ID":"231124028","TLE_LINE2":"2 53273  53.2166 181.0172 0001099  89.1108 271.0010 15.08840520 43912","EPHEMERIS_TYPE":"0","SITE":"AFETR","REF_FRAME":"TEME","MEAN_ELEMENT_THEORY":"SGP4","BSTAR":"0.00012208000000","CLASSIFICATION_TYPE":"U","NORAD_CAT_ID":"53273","COUNTRY_CODE":"US","MEAN_ANOMALY":"271.0010","RA_OF_ASC_NODE":"181.0172","DECAY_DATE":null,"LAUNCH_DATE":"2022-07-24","PERIOD":"95.438"},{"TIME_SYSTEM":"UTC","SEMIMAJOR_AXIS":"6917.835","CENTER_NAME":"EARTH","REV_AT_EPOCH":"4387","INCLINATION":"53.2162","ELEMENT_SET_NO":"999","FILE":"3899277","TLE_LINE1":"1 53274U 22086AJ  23122.55181338  .00007451  00000-0  48553-3 0  9998","APOAPSIS":"540.445","EPOCH":"2023-05-02T13:14:36.676032","PERIAPSIS":"538.955","ECCENTRICITY":"0.00010770","OBJECT_TYPE":"PAYLOAD","GP_ID":"231125279","ARG_OF_PERICENTER":"97.7913","TLE_LINE2":"2 53274  53.2162 182.4602 0001077  97.7913 262.3201 15.08854785 43875","EPHEMERIS_TYPE":"0","SITE":"AFETR","CLASSIFICATION_TYPE":"U","NORAD_CAT_ID":"53274","REF_FRAME":"TEME","MEAN_ELEMENT_THEORY":"SGP4","BSTAR":"0.00048553000000","MEAN_ANOMALY":"262.3201","LAUNCH_DATE":"2022-07-24","DECAY_DATE":null,"RA_OF_ASC_NODE":"182.4602","PERIOD":"95.437","COUNTRY_CODE":"US","MEAN_MOTION":"15.08854785","OBJECT_ID":"2022-086AJ","MEAN_MOTION_DDOT":"0.0000000000000","OBJECT_NAME":"STARLINK-4050","MEAN_MOTION_DOT":"0.00007451","RCS_SIZE":"LARGE"},{"TLE_LINE1":"1 53275U 22086AK  23122.86829808  .00000080  00000-0  23108-4 0  9995","ELEMENT_SET_NO":"999","INCLINATION":"53.2172","REV_AT_EPOCH":"4391","FILE":"3899277","TIME_SYSTEM":"UTC","CENTER_NAME":"EARTH","SEMIMAJOR_AXIS":"6917.882","ECCENTRICITY":"0.00014270","OBJECT_TYPE":"PAYLOAD","PERIAPSIS":"538.760","APOAPSIS":"540.734","EPOCH":"2023-05-02T20:50:20.954112","DECAY_DATE":null,"PERIOD":"95.438","LAUNCH_DATE":"2022-07-24","RA_OF_ASC_NODE":"181.0302","MEAN_ANOMALY":"267.3301","COUNTRY_CODE":"US","CLASSIFICATION_TYPE":"U","NORAD_CAT_ID":"53275","BSTAR":"0.00002310800000","MEAN_ELEMENT_THEORY":"SGP4","REF_FRAME":"TEME","TLE_LINE2":"2 53275  53.2172 181.0302 0001427  92.7855 267.3301 15.08839576 43910","SITE":"AFETR","EPHEMERIS_TYPE":"0","GP_ID":"231125022","ARG_OF_PERICENTER":"92.7855","RCS_SIZE":"LARGE","MEAN_MOTION_DOT":"0.00000080","MEAN_MOTION_DDOT":"0.0000000000000","OBJECT_NAME":"STARLINK-4179","OBJECT_ID":"2022-086AK","MEAN_MOTION":"15.08839576"},{"RCS_SIZE":"LARGE","MEAN_MOTION_DOT":"0.00003718","MEAN_MOTION":"15.08843296","OBJECT_ID":"2022-086AL","OBJECT_NAME":"STARLINK-4174","MEAN_MOTION_DDOT":"0.0000000000000","REF_FRAME":"TEME","BSTAR":"0.00025153000000","MEAN_ELEMENT_THEORY":"SGP4","CLASSIFICATION_TYPE":"U","NORAD_CAT_ID":"53276","COUNTRY_CODE":"US","MEAN_ANOMALY":"277.5404","DECAY_DATE":null,"LAUNCH_DATE":"2022-07-24","RA_OF_ASC_NODE":"181.0069","PERIOD":"95.437","ARG_OF_PERICENTER":"82.5727","GP_ID":"231124279","EPHEMERIS_TYPE":"0","TLE_LINE2":"2 53276  53.2158 181.0069 0001214  82.5727 277.5404 15.08843296 43915","SITE":"AFETR","OBJECT_TYPE":"PAYLOAD","ECCENTRICITY":"0.00012140","EPOCH":"2023-05-02T21:00:56.866752","APOAPSIS":"540.575","PERIAPSIS":"538.895","FILE":"3899277","REV_AT_EPOCH":"4391","INCLINATION":"53.2158","ELEMENT_SET_NO":"999","TLE_LINE1":"1 53276U 22086AL  23122.87565818  .00003718  00000-0  25153-3 0  9997","SEMIMAJOR_AXIS":"6917.870","CENTER_NAME":"EARTH","TIME_SYSTEM":"UTC"},{"EPOCH":"2023-05-02T12:42:49.341600","APOAPSIS":"540.674","PERIAPSIS":"538.768","OBJECT_TYPE":"PAYLOAD","ECCENTRICITY":"0.00013780","SEMIMAJOR_AXIS":"6917.856","CENTER_NAME":"EARTH","TIME_SYSTEM":"UTC","FILE":"3899068","REV_AT_EPOCH":"4386","INCLINATION":"53.2166","ELEMENT_SET_NO":"999","TLE_LINE1":"1 53277U 22086AM  23122.52973775 -.00001518  00000-0 -77280-4 0  9992","MEAN_MOTION":"15.08847987","OBJECT_ID":"2022-086AM","OBJECT_NAME":"STARLINK-4178","MEAN_MOTION_DDOT":"0.0000000000000","MEAN_MOTION_DOT":"-0.00001518","RCS_SIZE":"LARGE","ARG_OF_PERICENTER":"88.0218","GP_ID":"231094580","EPHEMERIS_TYPE":"0","TLE_LINE2":"2 53277  53.2166 182.5875 0001378  88.0218 272.0932 15.08847987 43864","SITE":"AFETR","REF_FRAME":"TEME","MEAN_ELEMENT_THEORY":"SGP4","BSTAR":"-0.00007728000000","CLASSIFICATION_TYPE":"U","NORAD_CAT_ID":"53277","COUNTRY_CODE":"US","MEAN_ANOMALY":"272.0932","DECAY_DATE":null,"PERIOD":"95.437","LAUNCH_DATE":"2022-07-24","RA_OF_ASC_NODE":"182.5875"},{"CENTER_NAME":"EARTH","SEMIMAJOR_AXIS":"6917.878","TIME_SYSTEM":"UTC","FILE":"3899277","ELEMENT_SET_NO":"999","REV_AT_EPOCH":"4391","INCLINATION":"53.2163","TLE_LINE1":"1 53278U 22086AN  23122.86461680  .00002302  00000-0  16268-3 0  9995","EPOCH":"2023-05-02T20:45:02.891520","APOAPSIS":"540.469","PERIAPSIS":"539.017","OBJECT_TYPE":"PAYLOAD","ECCENTRICITY":"0.00010490","ARG_OF_PERICENTER":"106.5669","GP_ID":"231124779","EPHEMERIS_TYPE":"0","TLE_LINE2":"2 53278  53.2163 181.0506 0001049 106.5669 253.5439 15.08840820 43919","SITE":"AFETR","BSTAR":"0.00016268000000","MEAN_ELEMENT_THEORY":"SGP4","REF_FRAME":"TEME","NORAD_CAT_ID":"53278","CLASSIFICATION_TYPE":"U","COUNTRY_CODE":"US","RA_OF_ASC_NODE":"181.0506","DECAY_DATE":null,"LAUNCH_DATE":"2022-07-24","PERIOD":"95.438","MEAN_ANOMALY":"253.5439","OBJECT_ID":"2022-086AN","MEAN_MOTION":"15.08840820","OBJECT_NAME":"STARLINK-4180","MEAN_MOTION_DDOT":"0.0000000000000","RCS_SIZE":"LARGE","MEAN_MOTION_DOT":"0.00002302"},{"OBJECT_ID":"2022-086AQ","MEAN_MOTION":"15.08845961","OBJECT_NAME":"STARLINK-4169","MEAN_MOTION_DDOT":"0.0000000000000","RCS_SIZE":"LARGE","MEAN_MOTION_DOT":"0.00000778","GP_ID":"231093580","ARG_OF_PERICENTER":"91.5924","SITE":"AFETR","TLE_LINE2":"2 53280  53.2169 137.5601 0001709  91.5924 268.5264 15.08845961 44497","EPHEMERIS_TYPE":"0","BSTAR":"0.00006697400000","MEAN_ELEMENT_THEORY":"SGP4","REF_FRAME":"TEME","NORAD_CAT_ID":"53280","CLASSIFICATION_TYPE":"U","COUNTRY_CODE":"US","DECAY_DATE":null,"PERIOD":"95.437","LAUNCH_DATE":"2022-07-24","RA_OF_ASC_NODE":"137.5601","MEAN_ANOMALY":"268.5264","EPOCH":"2023-05-02T10:54:47.320704","APOAPSIS":"540.909","PERIAPSIS":"538.545","OBJECT_TYPE":"PAYLOAD","ECCENTRICITY":"0.00017090","CENTER_NAME":"EARTH","SEMIMAJOR_AXIS":"6917.862","TIME_SYSTEM":"UTC","FILE":"3899068","ELEMENT_SET_NO":"999","REV_AT_EPOCH":"4449","INCLINATION":"53.2169","TLE_LINE1":"1 53280U 22086AQ  23122.45471436  .00000778  00000-0  66974-4 0  9998"},{"GP_ID":"231123779","ARG_OF_PERICENTER":"94.7789","SITE":"AFETR","TLE_LINE2":"2 53281  53.2177 182.3196 0001386  94.7789 265.3362 15.08852287 43873","EPHEMERIS_TYPE":"0","REF_FRAME":"TEME","BSTAR":"0.00014453000000","MEAN_ELEMENT_THEORY":"SGP4","NORAD_CAT_ID":"53281","CLASSIFICATION_TYPE":"U","COUNTRY_CODE":"US","MEAN_ANOMALY":"265.3362","DECAY_DATE":null,"LAUNCH_DATE":"2022-07-24","PERIOD":"95.437","RA_OF_ASC_NODE":"182.3196","MEAN_MOTION":"15.08852287","OBJECT_ID":"2022-086AR","OBJECT_NAME":"STARLINK-4182","MEAN_MOTION_DDOT":"0.0000000000000","MEAN_MOTION_DOT":"0.00002014","RCS_SIZE":"LARGE","SEMIMAJOR_AXIS":"6917.843","CENTER_NAME":"EARTH","TIME_SYSTEM":"UTC","FILE":"3899277","INCLINATION":"53.2177","REV_AT_EPOCH":"4387","ELEMENT_SET_NO":"999","TLE_LINE1":"1 53281U 22086AR  23122.58493065  .00002014  00000-0  14453-3 0  9994","EPOCH":"2023-05-02T14:02:18.008160","APOAPSIS":"540.667","PERIAPSIS":"538.749","OBJECT_TYPE":"PAYLOAD","ECCENTRICITY":"0.00013860"}];
